STARLINK-6374           
1 57338U 23099L   25091.31398755  .00001198  00000+0  10376-3 0  9995
2 57338  43.0048 309.4103 0001265 270.1307  89.9390 15.02540669 94617
STARLINK-6374           
1 57338U 23099L   25092.31115668  .00001101  00000+0  96527-4 0  9993
2 57338  43.0046 303.9925 0001258 268.9754  91.0944 15.02538469 94769
STARLINK-6374           
1 57338U 23099L   25092.31115668  .00001101  00000+0  96527-4 0  9993
2 57338  43.0046 303.9925 0001258 268.9754  91.0944 15.02538469 95502
STARLINK-6374           
1 57338U 23099L   25092.71002262  .00001110  00000+0  97247-4 0  9992
2 57338  43.0042 301.8251 0001252 268.5811  91.4888 15.02539064 94828
STARLINK-6374           
1 57338U 23099L   25093.57423068  .00001462  00000+0  12323-3 0  9999
2 57338  43.0038 297.1299 0001300 270.1741  89.8952 15.02541306 94956
STARLINK-6374           
1 57338U 23099L   25093.77366363  .00000820  00000+0  75813-4 0  9996
2 57338  43.0089 296.0431 0002078 235.5366 124.5280 15.02538746 94987
STARLINK-6374           
1 57338U 23099L   25093.77366363  .00000820  00000+0  75813-4 0  9996
2 57338  43.0089 296.0431 0002078 235.5366 124.5280 15.02538746 95720
STARLINK-6374           
1 57338U 23099L   25093.97310560 -.00000275  00000+0 -52573-5 0  9991
2 57338  43.0038 294.9584 0001517 251.0784 108.9894 15.02532006 95016
STARLINK-6374           
1 57338U 23099L   25093.97310560 -.00000275  00000+0 -52573-5 0  9991
2 57338  43.0038 294.9584 0001517 251.0784 108.9894 15.02532006 95757
STARLINK-6374           
1 57338U 23099L   25094.83731559  .00000993  00000+0  88582-4 0  9995
2 57338  43.0040 290.2658 0001425 263.4416  96.6264 15.02534766 95140
STARLINK-6374           
1 57338U 23099L   25094.97026785  .00000510  00000+0  52822-4 0  9991
2 57338  43.0039 289.5426 0001415 262.1462  97.9220 15.02540136 95906
STARLINK-6374           
1 57338U 23099L   25095.90096387  .00001092  00000+0  95925-4 0  9997
2 57338  43.0037 284.4863 0001367 264.4618  95.6068 15.02528925 95308
STARLINK-6374           
1 57338U 23099L   25095.96744162  .00001128  00000+0  98601-4 0  9998
2 57338  43.0037 284.1252 0001368 264.5127  95.5560 15.02529407 96059
STARLINK-6374           
1 57338U 23099L   25096.76517551 -.00000010  00000+0  14333-4 0  9997
2 57338  43.0032 279.7910 0001470 264.0515  96.0160 15.02536179 95432
STARLINK-6374           
1 57338U 23099L   25096.96460631  .00000582  00000+0  58174-4 0  9999
2 57338  43.0030 278.7068 0001335 266.0605  94.0084 15.02538577 96208
STARLINK-6374           
1 57338U 23099L   25097.49642787  .00001274  00000+0  10937-3 0  9995
2 57338  43.0033 275.8153 0001278 260.8414  99.2283 15.02537309 95546
STARLINK-6374           
1 57338U 23099L   25097.76234147  .00000899  00000+0  81639-4 0  9992
2 57338  43.0032 274.3704 0001243 260.1195  99.9507 15.02535188 95585
STARLINK-6374           
1 57338U 23099L   25098.49359513  .00001054  00000+0  93069-4 0  9992
2 57338  43.0024 270.3952 0001249 252.3347 107.7359 15.02537871 95691
STARLINK-6374           
1 57338U 23099L   25098.49359513  .00001054  00000+0  93069-4 0  9992
2 57338  43.0024 270.3952 0001249 252.3347 107.7359 15.02537871 96434
STARLINK-6374           
1 57338U 23099L   25098.75951097  .00001667  00000+0  13848-3 0  9992
2 57338  43.0028 268.9516 0001152 268.0337  92.0373 15.02529098 95739
STARLINK-6374           
1 57338U 23099L   25098.75951097  .00001667  00000+0  13848-3 0  9992
2 57338  43.0028 268.9516 0001152 268.0337  92.0373 15.02529098 96471
STARLINK-6374           
1 57338U 23099L   25099.49076395  .00000647  00000+0  62990-4 0  9993
2 57338  43.0026 264.9780 0001271 270.2796  89.7901 15.02537148 95849
STARLINK-6374           
1 57338U 23099L   25099.75667533  .00000626  00000+0  61375-4 0  9995
2 57338  43.0028 263.5332 0001305 271.2884  88.7809 15.02536953 95889
STARLINK-6374           
1 57338U 23099L   25100.42144881  .00001173  00000+0  10187-3 0  9990
2 57338  43.0031 259.9205 0001300 271.6280  88.4413 15.02541163 95988
STARLINK-6374           
1 57338U 23099L   25100.42144881  .00001173  00000+0  10187-3 0  9990
2 57338  43.0031 259.9205 0001300 271.6280  88.4413 15.02541163 96721
STARLINK-6374           
1 57338U 23099L   25101.15271248 -.00000153  00000+0  37577-5 0  9991
2 57338  43.0027 255.9463 0001343 273.4525  86.6164 15.02534349 96830
STARLINK-6374           
1 57338U 23099L   25101.75101296  .00000179  00000+0  28298-4 0  9998
2 57338  43.0031 252.6953 0001327 272.6512  87.4178 15.02534541 96188
STARLINK-6374           
1 57338U 23099L   25102.41578934  .00001366  00000+0  11616-3 0  9993
2 57338  43.0023 249.0848 0001305 276.3459  83.7235 15.02532721 96281
STARLINK-6374           
1 57338U 23099L   25102.41578934  .00001366  00000+0  11616-3 0  9993
2 57338  43.0023 249.0848 0001305 276.3459  83.7235 15.02532721 97024
STARLINK-6374           
1 57338U 23099L   25102.68170125  .00001326  00000+0  11324-3 0  9994
2 57338  43.0023 247.6391 0001268 270.3796  89.6901 15.02532948 96325
STARLINK-6374           
1 57338U 23099L   25103.67887209  .00000058  00000+0  19377-4 0  9990
2 57338  43.0027 242.2202 0001193 266.3895  93.6810 15.02532752 96476
STARLINK-6374           
1 57338U 23099L   25103.67887209  .00000058  00000+0  19377-4 0  9990
2 57338  43.0027 242.2202 0001193 266.3895  93.6810 15.02532752 97219
STARLINK-6374           
1 57338U 23099L   25104.67604274  .00001804  00000+0  14862-3 0  9993
2 57338  43.0042 236.8029 0001341 263.9802  96.0888 15.02523686 96620
STARLINK-6374           
1 57338U 23099L   25104.67604274  .00001804  00000+0  14862-3 0  9993
2 57338  43.0042 236.8029 0001341 263.9802  96.0888 15.02523686 97362
STARLINK-6374           
1 57338U 23099L   25105.73969634 -.00000125  00000+0  58321-5 0  9991
2 57338  43.0031 231.0241 0001211 305.8198  54.2532 15.02522374 96783
STARLINK-6374           
1 57338U 23099L   25105.73969634 -.00000125  00000+0  58321-5 0  9991
2 57338  43.0031 231.0241 0001211 305.8198  54.2532 15.02522374 97526
STARLINK-6374           
1 57338U 23099L   25106.07211566 -.00005286  00000+0 -37696-3 0  9997
2 57338  43.0033 229.2174 0001568 261.2520  98.8145 15.02491386 97578
STARLINK-6374           
1 57338U 23099L   25106.60393466 -.00002711  00000+0 -18583-3 0  9990
2 57338  43.0029 226.3282 0001867 255.0702 104.9934 15.02501541 96913
STARLINK-6374           
1 57338U 23099L   25106.73687265 -.00000193  00000+0  79282-6 0  9994
2 57338  43.0024 225.6049 0000861 274.9748  85.0996 15.02522052 96933
STARLINK-6374           
1 57338U 23099L   25106.73687265 -.00000193  00000+0  79282-6 0  9994
2 57338  43.0024 225.6049 0000861 274.9748  85.0996 15.02522052 97675
STARLINK-6374           
1 57338U 23099L   25107.66755540  .00009717  00000+0  73375-3 0  9993
2 57338  42.9929 220.5585 0003299  47.9771 312.1351 15.02517576 97076
STARLINK-6374           
1 57338U 23099L   25107.66755540  .00009717  00000+0  73375-3 0  9993
2 57338  42.9929 220.5585 0003299  47.9771 312.1351 15.02517576 97818
STARLINK-6374           
1 57338U 23099L   25108.33231285  .00001339  00000+0  11420-3 0  9998
2 57338  43.0079 216.9279 0003297 240.6895 119.3618 15.02538883 97910
STARLINK-6374           
1 57338U 23099L   25108.73117491 -.00006030  00000+0 -43114-3 0  9994
2 57338  43.0114 214.7601 0003546 244.0649 115.9828 15.02571277 97972
STARLINK-6374           
1 57338U 23099L   25109.26300302  .00000651  00000+0  63285-4 0  9991
2 57338  43.0077 211.8822 0003051 259.0339 101.0160 15.02537882 98055
STARLINK-6374           
1 57338U 23099L   25109.32948713 -.00003593  00000+0 -25088-3 0  9990
2 57338  43.0049 211.5181 0001809 256.3227 103.7414 15.02556244 97327
STARLINK-6374           
1 57338U 23099L   25110.59256678  .00001108  00000+0  97102-4 0  9998
2 57338  43.0045 204.6553 0001544 259.6817 100.3851 15.02530744 97512
STARLINK-6374           
1 57338U 23099L   25110.59256678  .00001108  00000+0  97102-4 0  9998
2 57338  43.0045 204.6553 0001544 259.6817 100.3851 15.02530744 98254
STARLINK-6374           
1 57338U 23099L   25111.58973589  .00000273  00000+0  35248-4 0  9990
2 57338  43.0024 199.2362 0001339 263.5018  96.5672 15.02533562 97669
STARLINK-6374           
1 57338U 23099L   25112.58689807 -.00000143  00000+0  44736-5 0  9998
2 57338  43.0023 193.8175 0001510 261.3869  98.6802 15.02538465 97813
STARLINK-6374           
1 57338U 23099L   25112.58689807 -.00000143  00000+0  44736-5 0  9998
2 57338  43.0023 193.8175 0001510 261.3869  98.6802 15.02538465 98555
STARLINK-6374           
1 57338U 23099L   25114.51475865  .00000460  00000+0  49127-4 0  9999
2 57338  43.0030 183.3428 0001433 265.2368  94.8311 15.02538020 98100
STARLINK-6374           
1 57338U 23099L   25114.51475865  .00000460  00000+0  49127-4 0  9999
2 57338  43.0030 183.3428 0001433 265.2368  94.8311 15.02538020 98841
STARLINK-6374           
1 57338U 23099L   25115.51192632  .00000354  00000+0  41260-4 0  9990
2 57338  43.0016 177.9243 0001547 260.7183  99.3485 15.02536765 98251
STARLINK-6374           
1 57338U 23099L   25116.17671027 -.00000375  00000+0 -12658-4 0  9997
2 57338  43.0015 174.3118 0001541 261.8115  98.2553 15.02531486 99095
STARLINK-6374           
1 57338U 23099L   25116.44262319 -.00000729  00000+0 -38877-4 0  9991
2 57338  43.0030 172.8683 0001494 263.8597  96.2076 15.02532463 98391
STARLINK-6374           
1 57338U 23099L   25117.50626304  .00001256  00000+0  10806-3 0  9992
2 57338  43.0022 167.0874 0001394 263.8801  96.1883 15.02533813 98550
STARLINK-6374           
1 57338U 23099L   25117.50626304  .00001256  00000+0  10806-3 0  9992
2 57338  43.0022 167.0874 0001394 263.8801  96.1883 15.02533813 99292
STARLINK-6374           
1 57338U 23099L   25118.50343322  .00000189  00000+0  29041-4 0  9995
2 57338  43.0025 161.6688 0001395 265.0803  94.9880 15.02535170 98701
STARLINK-6374           
1 57338U 23099L   25121.76084310  .00000431  00000+0  46967-4 0  9992
2 57338  43.0031 143.9691 0001291 268.6986  91.3709 15.02537584 99197
